[
    {
        "Altitude(m)": 605470.79791252,
        "Argument of Periapsis(deg)": 0.0,
        "Eccentricity": 0.0,
        "Inclination(deg)": 60.0,
        "Latitude(deg)": 27.988231844292876,
        "Longitude(deg)": 112.26295614724715,
        "Mean Anomaly(deg)": 147.2727,
        "RAAN(deg)": 50.0,
        "Satellite Name": "Test1 229",
        "Satellite Number": 229,
        "Semi-Major Axis(m)": 6980739.136638005,
        "Time(s)": 0
    },
    {
        "Altitude(m)": 605395.8356659776,
        "Argument of Periapsis(deg)": 0.00010418945913296404,
        "Eccentricity": 0.0,
        "Inclination(deg)": 60.0,
        "Latitude(deg)": 27.473922436100835,
        "Longitude(deg)": 112.61614381076842,
        "Mean Anomaly(deg)": 147.8928061454618,
        "RAAN(deg)": 49.99957995086026,
        "Satellite Name": "Test1 229",
        "Satellite Number": 229,
        "Semi-Major Axis(m)": 6980739.136638005,
        "Time(s)": 10
    }
]